[{"OBJECT_NAME":"IRIDIUM 132","OBJECT_ID":"2017-061G","EPOCH":"2026-03-09T22:35:22.589952","MEAN_MOTION":14.34217397,"ECCENTRICITY":0.00019726,"INCLINATION":86.3913,"RA_OF_ASC_NODE":66.7375,"ARG_OF_PERICENTER":90.1934,"MEAN_ANOMALY":269.9487,"EPHEMERIS_TYPE":0,"CLASSIFICATION_TYPE":"U","NORAD_CAT_ID":42961,"ELEMENT_SET_NO":999,"REV_AT_EPOCH":44059,"BSTAR":-6.187907e-6,"MEAN_MOTION_DOT":2.0e-8,"MEAN_MOTION_DDOT":0},{"OBJECT_NAME":"DMSP 5D-3 F17 DEB","OBJECT_ID":"2006-050BS","EPOCH":"2026-03-09T22:54:49.613760","MEAN_MOTION":14.35295656,"ECCENTRICITY":0.00076375,"INCLINATION":98.5246,"RA_OF_ASC_NODE":99.8826,"ARG_OF_PERICENTER":76.971,"MEAN_ANOMALY":332.1131,"EPHEMERIS_TYPE":0,"CLASSIFICATION_TYPE":"U","NORAD_CAT_ID":29600,"ELEMENT_SET_NO":999,"REV_AT_EPOCH":110,"BSTAR":0.0011746232,"MEAN_MOTION_DOT":3.324e-5,"MEAN_MOTION_DDOT":0}]
